CCSDS_OMM_VERS = 2.0
CREATION_DATE  = 
ORIGINATOR     = 

OBJECT_NAME    = DELTA 2 R/B(1)
OBJECT_ID      = 1990-008B
CENTER_NAME    = EARTH
REF_FRAME      = TEME
TIME_SYSTEM    = UTC
MEAN_ELEMENT_THEORY = SGP/SGP4

EPOCH          = 2026-02-08T06:27:55.194048
MEAN_MOTION    = 15.51894752
ECCENTRICITY   = .0094648
INCLINATION    = 35.6064
RA_OF_ASC_NODE = 7.3242
ARG_OF_PERICENTER = 344.1602
MEAN_ANOMALY   = 15.6181

EPHEMERIS_TYPE = 0
CLASSIFICATION_TYPE = U
NORAD_CAT_ID   = 20453
ELEMENT_SET_NO = 999
REV_AT_EPOCH   = 92155
BSTAR          = .95375E-3
MEAN_MOTION_DOT = .72087E-3
MEAN_MOTION_DDOT = 0

CCSDS_OMM_VERS = 2.0
CREATION_DATE  = 
ORIGINATOR     = 

OBJECT_NAME    = COSMOS 2058
OBJECT_ID      = 1990-010A
CENTER_NAME    = EARTH
REF_FRAME      = TEME
TIME_SYSTEM    = UTC
MEAN_ELEMENT_THEORY = SGP/SGP4

EPOCH          = 2026-02-08T13:54:42.408000
MEAN_MOTION    = 15.11050627
ECCENTRICITY   = .0012013
INCLINATION    = 82.4640
RA_OF_ASC_NODE = 76.1052
ARG_OF_PERICENTER = 78.3077
MEAN_ANOMALY   = 281.9500

EPHEMERIS_TYPE = 0
CLASSIFICATION_TYPE = U
NORAD_CAT_ID   = 20465
ELEMENT_SET_NO = 999
REV_AT_EPOCH   = 93784
BSTAR          = .25399E-3
MEAN_MOTION_DOT = .4282E-4
MEAN_MOTION_DDOT = 0

CCSDS_OMM_VERS = 2.0
CREATION_DATE  = 
ORIGINATOR     = 

OBJECT_NAME    = SL-14 R/B
OBJECT_ID      = 1990-010B
CENTER_NAME    = EARTH
REF_FRAME      = TEME
TIME_SYSTEM    = UTC
MEAN_ELEMENT_THEORY = SGP/SGP4

EPOCH          = 2026-02-08T18:03:00.620928
MEAN_MOTION    = 14.83543405
ECCENTRICITY   = .002081
INCLINATION    = 82.5028
RA_OF_ASC_NODE = 294.5715
ARG_OF_PERICENTER = 38.7660
MEAN_ANOMALY   = 321.5043

EPHEMERIS_TYPE = 0
CLASSIFICATION_TYPE = U
NORAD_CAT_ID   = 20466
ELEMENT_SET_NO = 999
REV_AT_EPOCH   = 92419
BSTAR          = .58475E-4
MEAN_MOTION_DOT = .507E-5
MEAN_MOTION_DDOT = 0

CCSDS_OMM_VERS = 2.0
CREATION_DATE  = 
ORIGINATOR     = 

OBJECT_NAME    = SL-14 R/B
OBJECT_ID      = 1990-018B
CENTER_NAME    = EARTH
REF_FRAME      = TEME
TIME_SYSTEM    = UTC
MEAN_ELEMENT_THEORY = SGP/SGP4

EPOCH          = 2026-02-08T16:11:13.695648
MEAN_MOTION    = 14.82114233
ECCENTRICITY   = .0016216
INCLINATION    = 82.5182
RA_OF_ASC_NODE = 250.2161
ARG_OF_PERICENTER = 182.5523
MEAN_ANOMALY   = 177.5611

EPHEMERIS_TYPE = 0
CLASSIFICATION_TYPE = U
NORAD_CAT_ID   = 20511
ELEMENT_SET_NO = 999
REV_AT_EPOCH   = 91828
BSTAR          = .54262E-4
MEAN_MOTION_DOT = .456E-5
MEAN_MOTION_DDOT = 0

CCSDS_OMM_VERS = 2.0
CREATION_DATE  = 
ORIGINATOR     = 

OBJECT_NAME    = HST
OBJECT_ID      = 1990-037B
CENTER_NAME    = EARTH
REF_FRAME      = TEME
TIME_SYSTEM    = UTC
MEAN_ELEMENT_THEORY = SGP/SGP4

EPOCH          = 2026-02-08T18:30:49.796352
MEAN_MOTION    = 15.29015568
ECCENTRICITY   = .0001773
INCLINATION    = 28.4663
RA_OF_ASC_NODE = 237.2056
ARG_OF_PERICENTER = 143.0565
MEAN_ANOMALY   = 217.0153

EPHEMERIS_TYPE = 0
CLASSIFICATION_TYPE = U
NORAD_CAT_ID   = 20580
ELEMENT_SET_NO = 999
REV_AT_EPOCH   = 76888
BSTAR          = .24335E-3
MEAN_MOTION_DOT = .7285E-4
MEAN_MOTION_DDOT = 0

CCSDS_OMM_VERS = 2.0
CREATION_DATE  = 
ORIGINATOR     = 

OBJECT_NAME    = SL-16 R/B
OBJECT_ID      = 1990-046B
CENTER_NAME    = EARTH
REF_FRAME      = TEME
TIME_SYSTEM    = UTC
MEAN_ELEMENT_THEORY = SGP/SGP4

EPOCH          = 2026-02-08T08:38:32.538048
MEAN_MOTION    = 14.15005980
ECCENTRICITY   = .00146824
INCLINATION    = 71.0002
RA_OF_ASC_NODE = 359.5080
ARG_OF_PERICENTER = 340.4587
MEAN_ANOMALY   = 19.5971

EPHEMERIS_TYPE = 0
CLASSIFICATION_TYPE = U
NORAD_CAT_ID   = 20625
ELEMENT_SET_NO = 999
REV_AT_EPOCH   = 84424
BSTAR          = .12031492E-3
MEAN_MOTION_DOT = .185E-5
MEAN_MOTION_DDOT = 0

CCSDS_OMM_VERS = 2.0
CREATION_DATE  = 
ORIGINATOR     = 

OBJECT_NAME    = COSMOS 2084
OBJECT_ID      = 1990-055A
CENTER_NAME    = EARTH
REF_FRAME      = TEME
TIME_SYSTEM    = UTC
MEAN_ELEMENT_THEORY = SGP/SGP4

EPOCH          = 2026-02-08T10:20:58.393824
MEAN_MOTION    = 15.05460857
ECCENTRICITY   = .00217339
INCLINATION    = 62.7899
RA_OF_ASC_NODE = 75.3541
ARG_OF_PERICENTER = 183.9347
MEAN_ANOMALY   = 176.1586

EPHEMERIS_TYPE = 0
CLASSIFICATION_TYPE = U
NORAD_CAT_ID   = 20663
ELEMENT_SET_NO = 999
REV_AT_EPOCH   = 93191
BSTAR          = .22148233E-3
MEAN_MOTION_DOT = .301E-4
MEAN_MOTION_DDOT = 0

CCSDS_OMM_VERS = 2.0
CREATION_DATE  = 
ORIGINATOR     = 

OBJECT_NAME    = SL-6 R/B(2)
OBJECT_ID      = 1990-055D
CENTER_NAME    = EARTH
REF_FRAME      = TEME
TIME_SYSTEM    = UTC
MEAN_ELEMENT_THEORY = SGP/SGP4

EPOCH          = 2026-02-08T07:23:14.453952
MEAN_MOTION    = 15.03438946
ECCENTRICITY   = .002036
INCLINATION    = 62.7850
RA_OF_ASC_NODE = 353.7555
ARG_OF_PERICENTER = 338.6124
MEAN_ANOMALY   = 21.4122

EPHEMERIS_TYPE = 0
CLASSIFICATION_TYPE = U
NORAD_CAT_ID   = 20666
ELEMENT_SET_NO = 999
REV_AT_EPOCH   = 93377
BSTAR          = .24335E-3
MEAN_MOTION_DOT = .3144E-4
MEAN_MOTION_DDOT = 0

CCSDS_OMM_VERS = 2.0
CREATION_DATE  = 
ORIGINATOR     = 

OBJECT_NAME    = SL-8 R/B
OBJECT_ID      = 1990-078B
CENTER_NAME    = EARTH
REF_FRAME      = TEME
TIME_SYSTEM    = UTC
MEAN_ELEMENT_THEORY = SGP/SGP4

EPOCH          = 2026-02-08T17:42:57.599424
MEAN_MOTION    = 14.88106002
ECCENTRICITY   = .0367039
INCLINATION    = 82.9021
RA_OF_ASC_NODE = 277.3270
ARG_OF_PERICENTER = 110.9988
MEAN_ANOMALY   = 253.0906

EPHEMERIS_TYPE = 0
CLASSIFICATION_TYPE = U
NORAD_CAT_ID   = 20775
ELEMENT_SET_NO = 999
REV_AT_EPOCH   = 80499
BSTAR          = .46235E-3
MEAN_MOTION_DOT = .15693E-3
MEAN_MOTION_DDOT = 0

CCSDS_OMM_VERS = 2.0
CREATION_DATE  = 
ORIGINATOR     = 

OBJECT_NAME    = SL-8 R/B
OBJECT_ID      = 1991-006B
CENTER_NAME    = EARTH
REF_FRAME      = TEME
TIME_SYSTEM    = UTC
MEAN_ELEMENT_THEORY = SGP/SGP4

EPOCH          = 2026-02-08T20:52:50.710368
MEAN_MOTION    = 13.77492094
ECCENTRICITY   = .0023631
INCLINATION    = 82.9433
RA_OF_ASC_NODE = 191.4720
ARG_OF_PERICENTER = 114.9669
MEAN_ANOMALY   = 354.8754

EPHEMERIS_TYPE = 0
CLASSIFICATION_TYPE = U
NORAD_CAT_ID   = 21088
ELEMENT_SET_NO = 999
REV_AT_EPOCH   = 76010
BSTAR          = .26289E-4
MEAN_MOTION_DOT = .42E-6
MEAN_MOTION_DDOT = 0

CCSDS_OMM_VERS = 2.0
CREATION_DATE  = 
ORIGINATOR     = 

OBJECT_NAME    = OKEAN-3
OBJECT_ID      = 1991-039A
CENTER_NAME    = EARTH
REF_FRAME      = TEME
TIME_SYSTEM    = UTC
MEAN_ELEMENT_THEORY = SGP/SGP4

EPOCH          = 2026-02-08T10:02:54.305376
MEAN_MOTION    = 15.04570773
ECCENTRICITY   = .00165066
INCLINATION    = 82.5179
RA_OF_ASC_NODE = 5.1916
ARG_OF_PERICENTER = 72.9642
MEAN_ANOMALY   = 287.3391

EPHEMERIS_TYPE = 0
CLASSIFICATION_TYPE = U
NORAD_CAT_ID   = 21397
ELEMENT_SET_NO = 999
REV_AT_EPOCH   = 86063
BSTAR          = .28030597E-3
MEAN_MOTION_DOT = .397E-4
MEAN_MOTION_DDOT = 0

CCSDS_OMM_VERS = 2.0
CREATION_DATE  = 
ORIGINATOR     = 

OBJECT_NAME    = COSMOS 2151
OBJECT_ID      = 1991-042A
CENTER_NAME    = EARTH
REF_FRAME      = TEME
TIME_SYSTEM    = UTC
MEAN_ELEMENT_THEORY = SGP/SGP4

EPOCH          = 2026-02-08T19:11:14.830944
MEAN_MOTION    = 14.99993608
ECCENTRICITY   = .001327
INCLINATION    = 82.4963
RA_OF_ASC_NODE = 111.5448
ARG_OF_PERICENTER = 151.3460
MEAN_ANOMALY   = 208.8496

EPHEMERIS_TYPE = 0
CLASSIFICATION_TYPE = U
NORAD_CAT_ID   = 21422
ELEMENT_SET_NO = 999
REV_AT_EPOCH   = 85886
BSTAR          = .19262E-3
MEAN_MOTION_DOT = .2425E-4
MEAN_MOTION_DDOT = 0

CCSDS_OMM_VERS = 2.0
CREATION_DATE  = 
ORIGINATOR     = 

OBJECT_NAME    = SL-14 R/B
OBJECT_ID      = 1991-042B
CENTER_NAME    = EARTH
REF_FRAME      = TEME
TIME_SYSTEM    = UTC
MEAN_ELEMENT_THEORY = SGP/SGP4

EPOCH          = 2026-02-08T15:41:33.517824
MEAN_MOTION    = 14.81801360
ECCENTRICITY   = .0016552
INCLINATION    = 82.4897
RA_OF_ASC_NODE = 247.4166
ARG_OF_PERICENTER = 341.5168
MEAN_ANOMALY   = 18.5443

EPHEMERIS_TYPE = 0
CLASSIFICATION_TYPE = U
NORAD_CAT_ID   = 21423
ELEMENT_SET_NO = 999
REV_AT_EPOCH   = 84877
BSTAR          = .51349E-4
MEAN_MOTION_DOT = .429E-5
MEAN_MOTION_DDOT = 0

CCSDS_OMM_VERS = 2.0
CREATION_DATE  = 
ORIGINATOR     = 

OBJECT_NAME    = ERS-1
OBJECT_ID      = 1991-050A
CENTER_NAME    = EARTH
REF_FRAME      = TEME
TIME_SYSTEM    = UTC
MEAN_ELEMENT_THEORY = SGP/SGP4

EPOCH          = 2026-02-08T15:23:48.172992
MEAN_MOTION    = 14.39425147
ECCENTRICITY   = .0030926
INCLINATION    = 98.7896
RA_OF_ASC_NODE = 57.1456
ARG_OF_PERICENTER = 289.1123
MEAN_ANOMALY   = 70.6716

EPHEMERIS_TYPE = 0
CLASSIFICATION_TYPE = U
NORAD_CAT_ID   = 21574
ELEMENT_SET_NO = 999
REV_AT_EPOCH   = 81155
BSTAR          = .1377E-3
MEAN_MOTION_DOT = .384E-5
MEAN_MOTION_DDOT = 0

CCSDS_OMM_VERS = 2.0
CREATION_DATE  = 
ORIGINATOR     = 

OBJECT_NAME    = ARIANE 40 R/B
OBJECT_ID      = 1991-050F
CENTER_NAME    = EARTH
REF_FRAME      = TEME
TIME_SYSTEM    = UTC
MEAN_ELEMENT_THEORY = SGP/SGP4

EPOCH          = 2026-02-08T16:36:45.970272
MEAN_MOTION    = 14.42871785
ECCENTRICITY   = .0003778
INCLINATION    = 98.2075
RA_OF_ASC_NODE = 93.0082
ARG_OF_PERICENTER = 145.5263
MEAN_ANOMALY   = 214.6173

EPHEMERIS_TYPE = 0
CLASSIFICATION_TYPE = U
NORAD_CAT_ID   = 21610
ELEMENT_SET_NO = 999
REV_AT_EPOCH   = 81481
BSTAR          = .1167E-3
MEAN_MOTION_DOT = .348E-5
MEAN_MOTION_DDOT = 0

